0 FENGYUN 1C DEB
1 31171U 99025BHZ 13281.93669274  .00003466  00000-0  19724-2 0  8251
2 31171 098.0221 334.7970 0251269 152.1200 333.1433 13.95658768333036
0 FENGYUN 1C DEB
1 31171U 99025BHZ 13283.01047433  .00003481  00000-0  19804-2 0  8266
2 31171 098.0223 335.7335 0251199 149.1324 328.1891 13.95665685333183
0 FENGYUN 1C DEB
1 31171U 99025BHZ 13285.36508801  .00003373  00000-0  19204-2 0  8283
2 31171 098.0233 337.7868 0250939 142.5427 278.6970 13.95678766333517
0 FENGYUN 1C DEB
1 31171U 99025BHZ 13286.36886694  .00003367  00000-0  19173-2 0  8292
2 31171 098.0235 338.6624 0250815 139.7403 282.1082 13.95685077333656
0 FENGYUN 1C DEB
1 31171U 99025BHZ 13287.37217828  .00003770  00000-0  21446-2 0  8307
2 31171 098.0230 339.5388 0250622 136.9396 283.1932 13.95691372333799
0 FENGYUN 1C DEB
1 31171U 99025BHZ 13288.37604403  .00004771  00000-0  27089-2 0  8319
2 31171 098.0231 340.4143 0250479 134.1392 287.0897 13.95704017333936
0 FENGYUN 1C DEB
1 31171U 99025BHZ 13289.37918262  .00004357  00000-0  24754-2 0  8328
2 31171 098.0241 341.2878 0250448 131.3276 287.3861 13.95709644334078
0 FENGYUN 1C DEB
1 31171U 99025BHZ 13291.38686579  .00003850  00000-0  21900-2 0  8333
2 31171 098.0232 343.0388 0250275 125.7227 295.1089 13.95726949334352
0 FENGYUN 1C DEB
1 31171U 99025BHZ 13293.39395983  .00003578  00000-0  20371-2 0  8341
2 31171 098.0221 344.7901 0249961 120.1247 299.9697 13.95739777334631
0 FENGYUN 1C DEB
1 31171U 99025BHZ 13294.98302206  .00003523  00000-0  20072-2 0  8352
2 31171 098.0215 346.1765 0249640 115.6983 004.4395 13.95746980334850
